SPACEBEE-4              
1 43139U 18004AE  22328.24762372  .00267281  00000+0  15250-2 0  9993
2 43139  97.3681  57.3518 0002327 250.3961 109.7054 15.78166893271678
SPACEBEE-7              
1 43816U 18099BL  22328.16789948  .00002557  00000+0  21643-3 0  9995
2 43816  97.6092  32.5830 0013024  77.6793 282.5887 14.98835966216566
SPACEBEE-5              
1 43817U 18099BM  22328.16377827  .00008109  00000+0  58235-3 0  9991
2 43817  97.6184  36.6935 0005984  78.7466 281.4432 15.04541221216756
SPACEBEE-6              
1 43818U 18099BN  22328.39206980  .00004686  00000+0  37636-3 0  9996
2 43818  97.6111  34.0459 0016658  82.8664 277.4454 15.00415490216805
SPACEBEE-21             
1 46300U 20061AE  22328.43139070  .00021461  00000+0  83054-3 0  9992
2 46300  97.4352  38.8691 0000698  62.3538 297.7771 15.26213815122863
SPACEBEE-20             
1 46301U 20061AF  22328.17141752  .00021005  00000+0  81452-3 0  9998
2 46301  97.4383  38.7379 0000543  56.6064 303.5226 15.26151305122821
SPACEBEE-15             
1 46302U 20061AG  22328.18305510  .00024993  00000+0  90669-3 0  9993
2 46302  97.4355  39.2141 0000584  69.9904 290.1399 15.28321629122865
SPACEBEE-19             
1 46303U 20061AH  22328.13204836  .00021882  00000+0  82755-3 0  9999
2 46303  97.4361  38.8436 0000909  65.6096 294.5238 15.26975791122831
SPACEBEE-18             
1 46304U 20061AJ  22328.14677959  .00021503  00000+0  81306-3 0  9992
2 46304  97.4358  38.8050 0000638  59.2215 300.9087 15.26985826122835
SPACEBEE-10             
1 46305U 20061AK  22328.45798889  .00035968  00000+0  11387-2 0  9994
2 46305  97.4361  40.5902 0000123  88.3361 271.7895 15.32663901122971
SPACEBEE-17             
1 46306U 20061AL  22328.15175796  .00024028  00000+0  88017-3 0  9998
2 46306  97.4359  39.1279 0000526  63.0185 297.1108 15.28011013122897
SPACEBEE-11             
1 46307U 20061AM  22328.17913146  .00031445  00000+0  10546-2 0  9992
2 46307  97.4359  39.8729 0000292  74.4355 285.6918 15.30836326122908
SPACEBEE-16             
1 46308U 20061AN  22328.45613167  .00024968  00000+0  90801-3 0  9999
2 46308  97.4361  39.5044 0000382  27.0818 333.0442 15.28241259122909
SPACEBEE-12             
1 46309U 20061AP  22328.46163764  .00028523  00000+0  98264-3 0  9996
2 46309  97.4355  39.9420 0000387  74.1544 285.9739 15.29985617122930
SPACEBEE-13             
1 46310U 20061AQ  22328.46843913  .00027567  00000+0  96915-3 0  9997
2 46310  97.4356  39.7782 0000363  72.4405 287.6875 15.29330792122964
SPACEBEE-14             
1 46311U 20061AR  22328.17467140  .00026694  00000+0  94856-3 0  9992
2 46311  97.4359  39.4153 0000405  66.7929 293.3353 15.28988068122904
SPACEBEENZ-3            
1 46938U 20085K   22328.33595025  .00042431  00000+0  91525-3 0  9992
2 46938  97.4524 108.9318 0010529 230.2891 129.7430 15.44388092112043
SPACEBEENZ-4            
1 46939U 20085L   22328.39642800  .00040149  00000+0  90369-3 0  9992
2 46939  97.4531 108.7057 0010545 230.4156 129.6161 15.43134668112030
SPACEBEENZ-5            
1 46941U 20085N   22328.34792757  .00036164  00000+0  83731-3 0  9994
2 46941  97.4541 108.4855 0010548 229.8606 130.1718 15.42311278112018
SPACEBEENZ-6            
1 46942U 20085P   22328.35942678  .00034922  00000+0  82938-3 0  9993
2 46942  97.4555 108.3730 0010814 230.2826 129.7468 15.41550677112003
SPACEBEE-33             
1 46944U 20085R   22328.34197329  .00338104  00000+0  21006-2 0  9996
2 46944  97.4311 112.2414 0010978 273.0269  86.9740 15.75973135112298
SPACEBEE-29             
1 46945U 20085S   22328.39268267  .10782629  24864-5  16468-2 0  9994
2 46945  97.4032 114.0155 0011609 305.0343  54.9864 16.34020040112412
SPACEBEE-32             
1 46946U 20085T   22328.35762762  .00383724  00000+0  21210-2 0  9993
2 46946  97.4289 112.5211 0009342 273.2936  86.7262 15.78529190112319
SPACEBEE-31             
1 46947U 20085U   22328.34986360  .00706632  19688-3  25016-2 0  9996
2 46947  97.4251 112.9903 0012389 291.6996  68.2956 15.88907385112341
SPACEBEE-30             
1 46949U 20085W   22328.36472547  .01269732  83824-3  27125-2 0  9999
2 46949  97.4206 113.4279 0011660 301.9281  58.0862 15.98682335112370
SPACEBEENZ-2            
1 46957U 20085AE  22328.34671191  .00045231  00000+0  93529-3 0  9990
2 46957  97.4514 109.2069 0010299 230.9631 129.0701 15.45621234112024
SPACEBEE-39             
1 46958U 20085AF  22328.40074533  .01741126  20487-2  27648-2 0  9994
2 46958  97.4239 114.3553 0012097 302.2018  57.8088 16.04141731111732
SPACEBEENZ-1            
1 46959U 20085AG  22328.38779355  .00050884  00000+0  99225-3 0  9996
2 46959  97.4511 109.6136 0010230 230.9792 129.0548 15.47305684111573
SPACEBEE-52             
1 47425U 21006N   22328.17425609  .00047881  00000+0  12103-2 0  9998
2 47425  97.4240  30.4728 0007915  67.1558 293.0523 15.39612988102849
SPACEBEE-46             
1 47426U 21006P   22328.41166513  .00033091  00000+0  10080-2 0  9992
2 47426  97.4237  29.4937 0009727  70.8616 289.3679 15.33865913102803
SPACEBEE-47             
1 47427U 21006Q   22328.43024275  .00030048  00000+0  93815-3 0  9990
2 47427  97.4244  29.3174 0009789  71.9253 288.3054 15.33100924101833
SPACEBEE-59             
1 47428U 21006R   22328.11974035  .00030027  00000+0  96147-3 0  9992
2 47428  97.4250  28.8248 0010264  74.8818 285.3558 15.32288685102732
SPACEBEE-62             
1 47429U 21006S   22328.41459248  .00008057  00000+0  36588-3 0  9991
2 47429  97.4201  25.8623 0013635  78.1004 282.1760 15.20961891101623
SPACEBEE-61             
1 47431U 21006U   22328.17277179  .00021666  00000+0  82927-3 0  9997
2 47431  97.4280  26.0541 0005655  89.3475 270.8412 15.26565908102538
SPACEBEE-49             
1 47432U 21006V   22328.42731573  .00021278  00000+0  82063-3 0  9999
2 47432  97.4288  26.2159 0005338  90.1537 270.0313 15.26317254102565
SPACEBEE-60             
1 47433U 21006W   22328.39792035  .00021909  00000+0  83574-3 0  9995
2 47433  97.4289  26.2750 0005174  90.7336 269.4495 15.26677887102569
SPACEBEE-53             
1 47434U 21006X   22328.14699944  .00032034  00000+0  10774-2 0  9996
2 47434  97.4300  26.9848 0004350  90.9524 269.2215 15.30733379102589
SPACEBEE-63             
1 47442U 21006AF  22328.10797191  .00006899  00000+0  34592-3 0  9999
2 47442  97.4240  23.3008 0007192  96.2319 263.9734 15.17634083101402
SPACEBEE-50             
1 47443U 21006AG  22328.11770541  .00020127  00000+0  77701-3 0  9990
2 47443  97.4283  25.9678 0005816  88.5488 271.6417 15.26293611101562
SPACEBEE-51             
1 47444U 21006AH  22328.11343751  .00029108  00000+0  94891-3 0  9997
2 47444  97.4210  26.5492 0005081  88.7272 271.4551 15.31757845101647
SPACEBEE-48             
1 47447U 21006AL  22328.16271550  .00039991  00000+0  11685-2 0  9992
2 47447  97.4189  28.1783 0007586  74.5958 285.6122 15.35159623101760
SPACEBEE-40             
1 47449U 21006AN  22328.11552413  .00030538  00000+0  97957-3 0  9994
2 47449  97.4195  27.4858 0007969  76.1695 284.0433 15.32248997101718
SPACEBEE-41             
1 47451U 21006AQ  22328.13938174  .00029847  00000+0  96333-3 0  9999
2 47451  97.4204  27.5031 0008012  77.3128 282.9009 15.32055000101717
SPACEBEE-42             
1 47455U 21006AU  22328.13038708  .00028817  00000+0  94231-3 0  9998
2 47455  97.4201  27.3880 0007973  77.2304 282.9828 15.31642435101709
SPACEBEE-55             
1 47459U 21006AY  22328.16686029  .00007887  00000+0  37516-3 0  9997
2 47459  97.4162  24.0351 0012098  90.0899 270.1722 15.19382156101509
SPACEBEE-54             
1 47460U 21006AZ  22328.14124664  .00028873  00000+0  94576-3 0  9996
2 47460  97.4211  27.4129 0007962  78.4095 281.8040 15.31587560101702
SPACEBEE-58             
1 47464U 21006BD  22328.42340681  .00030174  00000+0  94104-3 0  9994
2 47464  97.4241  29.3318 0009860  71.6627 288.5687 15.33134708101834
SPACEBEE-57             
1 47465U 21006BE  22328.12030275  .00006625  00000+0  33279-3 0  9997
2 47465  97.4178  22.7801 0006596 101.6023 258.5952 15.17588587101400
SPACEBEE-44             
1 47466U 21006BF  22328.13445250  .00024033  00000+0  86710-3 0  9993
2 47466  97.4210  25.9333 0005682  88.9295 271.2595 15.28495296101609
SPACEBEE-56             
1 47468U 21006BH  22328.42100480  .00023728  00000+0  87734-3 0  9997
2 47468  97.4216  26.0487 0005706  89.8769 270.3124 15.27690552101634
SPACEBEE-45             
1 47470U 21006BK  22328.47417368  .00024390  00000+0  88708-3 0  9999
2 47470  97.4214  26.2860 0005976  88.3602 271.8322 15.28227150101650
SPACEBEE-43             
1 47480U 21006BV  22328.11975577  .00025173  00000+0  90075-3 0  9992
2 47480  97.4210  25.9429 0005460  89.3212 270.8653 15.28758859101606
SPACEBEE-87             
1 47703U 21015E   22328.18962551  .00133018  00000+0  16445-2 0  9991
2 47703  97.3969  48.4254 0006660 231.4704 128.5956 15.59649740 96902
SPACEBEE-86             
1 47704U 21015F   22328.47147019  .00152503  00000+0  17028-2 0  9996
2 47704  97.3942  49.0588 0006317 227.5077 132.5648 15.62253252 96950
SPACEBEE-85             
1 47705U 21015G   22328.19178511  .00152434  00000+0  16683-2 0  9996
2 47705  97.3966  48.8318 0005644 223.0094 137.0723 15.62775289 96938
SPACEBEE-84             
1 47706U 21015H   22328.22005267  .00166101  00000+0  17574-2 0  9994
2 47706  97.3946  48.9355 0005926 233.1216 126.9500 15.63599027 96946
SPACEBEE-83             
1 47707U 21015J   22328.21816642  .00204242  00000+0  19195-2 0  9991
2 47707  97.3908  49.0434 0007231 245.4505 114.6002 15.66469315 96954
SPACEBEE-82             
1 47708U 21015K   22328.22387725  .00240865  00000+0  19742-2 0  9997
2 47708  97.3913  49.4922 0005873 240.7757 119.2917 15.69744704 96984
SPACEBEE-81             
1 47709U 21015L   22328.50114974  .00282693  00000+0  20981-2 0  9995
2 47709  97.3911  50.0627 0004878 227.4846 132.6006 15.72019566 96969
SPACEBEE-78             
1 47710U 21015M   22328.19474980  .00674248  00000+0  25042-2 0  9992
2 47710  97.3867  50.4710 0009654 277.5613  82.4561 15.86406111 97042
